BEIJING 1               
1 28890U 05043A   19302.37850707 -.00000053  00000-0 -14571-5 0  9994
2 28890  97.9996  73.3961 0014293 315.7623  44.2447 14.61270347746628
HJ-1A                   
1 33320U 08041A   19302.45023070  .00000075  00000-0  17644-4 0  9998
2 33320  97.8235 356.9817 0026763 109.0738 251.3374 14.77050802600351
HJ-1B                   
1 33321U 08041B   19302.40054305  .00000119  00000-0  23769-4 0  9993
2 33321  97.8311 358.9547 0035601 128.2877 232.1549 14.77170946600349
YAOGAN 4                
1 33446U 08061A   19302.45004675  .00000117  00000-0  23415-4 0  9999
2 33446  97.6927 263.2656 0016616  18.1074 342.0726 14.76982783587585
DEIMOS-1                
1 35681U 09041A   19302.53037359  .00000103  00000-0  24072-4 0  9990
2 35681  97.8406 179.7877 0002840  82.7389 277.4142 14.71805078550273
UK-DMC 2                
1 35683U 09041C   19302.44887543  .00000189  00000-0  38185-4 0  9994
2 35683  97.7197 152.3047 0001907  94.0651 266.0766 14.71118052550060
RISAT 1                 
1 38248U 12017A   19302.51388308  .00000607  00000-0  41345-4 0  9991
2 38248  97.5704 309.5756 0003468 341.9616  18.1490 15.09913321413639
DMC3-FM1                
1 40715U 15032A   19302.37832119 -.00000088  00000-0 -57183-5 0  9994
2 40715  97.9528 195.7900 0014465 248.6115 111.3524 14.73683773231470
DMC3-FM2                
1 40716U 15032B   19302.40145352 -.00000005  00000-0  68386-5 0  9990
2 40716  97.9546 196.0967 0011788 257.2239 102.7640 14.73686216231485
DMC3-FM3                
1 40717U 15032C   19302.35610405 -.00000004  00000-0  70676-5 0  9995
2 40717  97.9553 196.7506 0015379 249.5482 110.4068 14.73676044231471
